{
  "norad_id": 65879,
  "name": "STARLINK-35418",
  "history": [
    {
      "epoch": "2026-03-28T17:13:11.148096",
      "apogee_km": 475.95043482591063,
      "perigee_km": 474.3972004622001,
      "latitude_deg": -38.77896738116596,
      "longitude_deg": 116.77905344008468,
      "semi_major_axis_km": 6853.310817644055,
      "eccentricity": 0.00011332,
      "inclination_deg": 53.1592,
      "raan_deg": 206.1567,
      "arg_perigee_deg": 89.6804,
      "mean_anomaly_deg": 270.4326,
      "mean_motion_rev_day": 15.30213816
    }
  ]
}